$$SOE
2460147.500000000, A.D. 2023-Jul-22 00:00:00.0000, 2.933442649903727E+08, -1.529288388121213E+07, 5.327269905634612E+06,
2460154.500000000, A.D. 2023-Jul-29 00:00:00.0000, 2.914476557703325E+08, -1.133222623266625E+06, 5.914450043022593E+06,
2460161.500000000, A.D. 2023-Aug-05 00:00:00.0000, 2.889800838507187E+08, 1.302865016655229E+07, 6.490032594606450E+06,
2460168.500000000, A.D. 2023-Aug-12 00:00:00.0000, 2.859336025675420E+08, 2.716441459290254E+07, 7.052602561561054E+06,
2460175.500000000, A.D. 2023-Aug-19 00:00:00.0000, 2.823020472409302E+08, 4.124458717041741E+07, 7.600729973289138E+06,
2460182.500000000, A.D. 2023-Aug-26 00:00:00.0000, 2.780812034312978E+08, 5.523865549644386E+07, 8.132979293950215E+06,
2460189.500000000, A.D. 2023-Sep-02 00:00:00.0000, 2.732689646481630E+08, 6.911523858310911E+07, 8.647919748189643E+06,
2460196.500000000, A.D. 2023-Sep-09 00:00:00.0000, 2.678654751276273E+08, 8.284227221976763E+07, 9.144136444074973E+06,
2460203.500000000, A.D. 2023-Sep-16 00:00:00.0000, 2.618732533433115E+08, 9.638721787372164E+07, 9.620242118651465E+06,
2460210.500000000, A.D. 2023-Sep-23 00:00:00.0000, 2.552972922494250E+08, 1.097172930718685E+08, 1.007488929635938E+07,
2460217.500000000, A.D. 2023-Sep-30 00:00:00.0000, 2.481451317612291E+08, 1.227997211925119E+08, 1.050678275492541E+07,
2460224.500000000, A.D. 2023-Oct-07 00:00:00.0000, 2.404268974580446E+08, 1.356019960167989E+08, 1.091469221051798E+07,
2460231.500000000, A.D. 2023-Oct-14 00:00:00.0000, 2.321553036375324E+08, 1.480921528504731E+08, 1.129746458120877E+07,
2460238.500000000, A.D. 2023-Oct-21 00:00:00.0000, 2.233456219489639E+08, 1.602390422883878E+08, 1.165403537952821E+07,
2460245.500000000, A.D. 2023-Oct-28 00:00:00.0000, 2.140156132385730E+08, 1.720126028980499E+08, 1.198343926925850E+07,
2460252.500000000, A.D. 2023-Nov-04 00:00:00.0000, 2.041854215814188E+08, 1.833841258428646E+08, 1.228481957072744E+07,
2460259.500000000, A.D. 2023-Nov-11 00:00:00.0000, 1.938774320985452E+08, 1.943265046770706E+08, 1.255743640444762E+07,
2460266.500000000, A.D. 2023-Nov-18 00:00:00.0000, 1.831160953765077E+08, 2.048144644070886E+08, 1.280067323927459E+07,
2460273.500000000, A.D. 2023-Nov-25 00:00:00.0000, 1.719277222599334E+08, 2.148247645988627E+08, 1.301404168134169E+07,
2460280.500000000, A.D. 2023-Dec-02 00:00:00.0000, 1.603402537021957E+08, 2.243363721069351E+08, 1.319718439997280E+07,
2460287.500000000, A.D. 2023-Dec-09 00:00:00.0000, 1.483830111649268E+08, 2.333305999632807E+08, 1.334987614080364E+07,
2460294.500000000, A.D. 2023-Dec-16 00:00:00.0000, 1.360864337733224E+08, 2.417912101680117E+08, 1.347202282456575E+07,
2460301.500000000, A.D. 2023-Dec-23 00:00:00.0000, 1.234818087322913E+08, 2.497044799921131E+08, 1.356365883651108E+07,
2460308.500000000, A.D. 2023-Dec-30 00:00:00.0000, 1.106009997831319E+08, 2.570592329369766E+08, 1.362494284437156E+07,
2460315.500000000, A.D. 2024-Jan-06 00:00:00.0000, 9.747617773389073E+07, 2.638468331910638E+08, 1.365615228685410E+07,
2460322.500000000, A.D. 2024-Jan-13 00:00:00.0000, 8.413956153669694E+07, 2.700611440097978E+08, 1.365767630373973E+07,
2460329.500000000, A.D. 2024-Jan-20 00:00:00.0000, 7.062317578091519E+07, 2.756984561605292E+08, 1.363000747622547E+07,
2460336.500000000, A.D. 2024-Jan-27 00:00:00.0000, 5.695862640140520E+07, 2.807573907532356E+08, 1.357373285587056E+07,
2460343.500000000, A.D. 2024-Feb-03 00:00:00.0000, 4.317689712471836E+07, 2.852387796118538E+08, 1.348952448571068E+07,
2460350.500000000, A.D. 2024-Feb-10 00:00:00.0000, 2.930816899770539E+07, 2.891455272281871E+08, 1.337812959816708E+07,
2460357.500000000, A.D. 2024-Feb-17 00:00:00.0000, 1.538166434625135E+07, 2.924824586758192E+08, 1.324036069543898E+07,
2460364.500000000, A.D. 2024-Feb-24 00:00:00.0000, 1.425515614893735E+06, 2.952561577402113E+08, 1.307708570610285E+07,
2460371.500000000, A.D. 2024-Mar-02 00:00:00.0000, -1.253334117036073E+07, 2.974747992118823E+08, 1.288921838245916E+07,
2460378.500000000, A.D. 2024-Mar-09 00:00:00.0000, -2.646924905624301E+07, 2.991479788960703E+08, 1.267770906253098E+07,
2460385.500000000, A.D. 2024-Mar-16 00:00:00.0000, -4.035788989161173E+07, 3.002865447213818E+08, 1.244353588971114E+07,
2460392.500000000, A.D. 2024-Mar-23 00:00:00.0000, -5.417632294512032E+07, 3.009024327762870E+08, 1.218769667533912E+07,
2460399.500000000, A.D. 2024-Mar-30 00:00:00.0000, -6.790300659824760E+07, 3.010085104879426E+08, 1.191120166575141E+07,
2460406.500000000, A.D. 2024-Apr-06 00:00:00.0000, -8.151780494011958E+07, 3.006184253272432E+08, 1.161506694955486E+07,
2460413.500000000, A.D. 2024-Apr-13 00:00:00.0000, -9.500197786620596E+07, 2.997464611867312E+08, 1.130030826335803E+07,
2460420.500000000, A.D. 2024-Apr-20 00:00:00.0000, -1.083381577613138E+08, 2.984074060377235E+08, 1.096793549908814E+07,
2460427.500000000, A.D. 2024-Apr-27 00:00:00.0000, -1.215103163228579E+08, 2.966164308646189E+08, 1.061894798813219E+07,
2460434.500000000, A.D. 2024-May-04 00:00:00.0000, -1.345037233593019E+08, 2.943889794165983E+08, 1.025433046828587E+07,
2460441.500000000, A.D. 2024-May-11 00:00:00.0000, -1.473048990999582E+08, 2.917406686641847E+08, 9.875049666777372E+06,
2460448.500000000, A.D. 2024-May-18 00:00:00.0000, -1.599015615393701E+08, 2.886871997647893E+08, 9.482051451292381E+06,
2460455.500000000, A.D. 2024-May-25 00:00:00.0000, -1.722825702186908E+08, 2.852442791500352E+08, 9.076258500285149E+06,
2460462.500000000, A.D. 2024-Jun-01 00:00:00.0000, -1.844378676324319E+08, 2.814275491754912E+08, 8.658568434849590E+06,
2460469.500000000, A.D. 2024-Jun-08 00:00:00.0000, -1.963584190885046E+08, 2.772525277219976E+08, 8.229852339946240E+06,
2460476.500000000, A.D. 2024-Jun-15 00:00:00.0000, -2.080361515320157E+08, 2.727345566508053E+08, 7.790953636115938E+06,
2460483.500000000, A.D. 2024-Jun-22 00:00:00.0000, -2.194638930970301E+08, 2.678887596175466E+08, 7.342687444792226E+06,
2460490.500000000, A.D. 2024-Jun-29 00:00:00.0000, -2.306353161256717E+08, 2.627300067502802E+08, 6.885840449876875E+06,
2460497.500000000, A.D. 2024-Jul-06 00:00:00.0000, -2.415448814914106E+08, 2.572728830479794E+08, 6.421170771078333E+06,
2460504.500000000, A.D. 2024-Jul-13 00:00:00.0000, -2.521877826513270E+08, 2.515316626600470E+08, 5.949407864875495E+06,
2460511.500000000, A.D. 2024-Jul-20 00:00:00.0000, -2.625598917006664E+08, 2.455202895675855E+08, 5.471252695737898E+06,
2460518.500000000, A.D. 2024-Jul-27 00:00:00.0000, -2.726577082896666E+08, 2.392523631157125E+08, 4.987378129510507E+06,
2460525.500000000, A.D. 2024-Aug-03 00:00:00.0000, -2.824783112677493E+08, 2.327411274683782E+08, 4.498429467053607E+06,
2460532.500000000, A.D. 2024-Aug-10 00:00:00.0000, -2.920193129734009E+08, 2.259994644750767E+08, 4.005025078781292E+06,
2460539.500000000, A.D. 2024-Aug-17 00:00:00.0000, -3.012788161567483E+08, 2.190398895128587E+08, 3.507757115797237E+06,
2460546.500000000, A.D. 2024-Aug-24 00:00:00.0000, -3.102553734982147E+08, 2.118745498653513E+08, 3.007192273942813E+06,
2460553.500000000, A.D. 2024-Aug-31 00:00:00.0000, -3.189479495652016E+08, 2.045152251992173E+08, 2.503872578516439E+06,
2460560.500000000, A.D. 2024-Sep-07 00:00:00.0000, -3.273558847741861E+08, 1.969733299225362E+08, 1.998316152384683E+06,
2460567.500000000, A.D. 2024-Sep-14 00:00:00.0000, -3.354788611884950E+08, 1.892599181142124E+08, 1.491018029128581E+06,
2460574.500000000, A.D. 2024-Sep-21 00:00:00.0000, -3.433168720854988E+08, 1.813856911647234E+08, 9.824512207837030E+05,
2460581.500000000, A.D. 2024-Sep-28 00:00:00.0000, -3.508701956778255E+08, 1.733610046630938E+08, 4.730678123004586E+05,
2460588.500000000, A.D. 2024-Oct-05 00:00:00.0000, -3.581393692044196E+08, 1.651958743230302E+08, -3.670026061920077E+04,
2460595.500000000, A.D. 2024-Oct-12 00:00:00.0000, -3.651251636339175E+08, 1.568999837407392E+08, -5.464404790792242E+05,
2460602.500000000, A.D. 2024-Oct-19 00:00:00.0000, -3.718285606189600E+08, 1.484826935518978E+08, -1.055758920421064E+06,
2460609.500000000, A.D. 2024-Oct-26 00:00:00.0000, -3.782507316217802E+08, 1.399530510500136E+08, -1.564279416114427E+06,
2460616.500000000, A.D. 2024-Nov-02 00:00:00.0000, -3.843930188408312E+08, 1.313197999998877E+08, -2.071642726770766E+06,
2460623.500000000, A.D. 2024-Nov-09 00:00:00.0000, -3.902569177317587E+08, 1.225913905648819E+08, -2.577505743611328E+06,
2460630.500000000, A.D. 2024-Nov-16 00:00:00.0000, -3.958440609910890E+08, 1.137759892612380E+08, -3.081540720344707E+06,
2460637.500000000, A.D. 2024-Nov-23 00:00:00.0000, -4.011562038546685E+08, 1.048814888160310E+08, -3.583434544947550E+06,
2460644.500000000, A.D. 2024-Nov-30 00:00:00.0000, -4.061952104063233E+08, 9.591551782442579E+07, -4.082888074609086E+06,
2460651.500000000, A.D. 2024-Dec-07 00:00:00.0000, -4.109630403858526E+08, 8.688545057535608E+07, -4.579615538212501E+06,
2460658.500000000, A.D. 2024-Dec-14 00:00:00.0000, -4.154617370986977E+08, 7.779841822659235E+07, -5.073343843144987E+06,
2460665.500000000, A.D. 2024-Dec-21 00:00:00.0000, -4.196934186663942E+08, 6.866132005304720E+07, -5.563811675066814E+06,
2460672.500000000, A.D. 2024-Dec-28 00:00:00.0000, -4.236602705720287E+08, 5.948083177416379E+07, -6.050768813783858E+06,
2460679.500000000, A.D. 2025-Jan-04 00:00:00.0000, -4.273645368312653E+08, 5.026341331621990E+07, -6.533975708344143E+06,
2460686.500000000, A.D. 2025-Jan-11 00:00:00.0000, -4.308085115413572E+08, 4.101531765113363E+07, -7.013203007537857E+06,
2460693.500000000, A.D. 2025-Jan-18 00:00:00.0000, -4.339945316645728E+08, 3.174259977843060E+07, -7.488231035997488E+06,
2460700.500000000, A.D. 2025-Jan-25 00:00:00.0000, -4.369249707475666E+08, 2.245112536685408E+07, -7.958849276208710E+06,
2460707.500000000, A.D. 2025-Feb-01 00:00:00.0000, -4.396022333350732E+08, 1.314657902017450E+07, -8.424855875226595E+06,
2460714.500000000, A.D. 2025-Feb-08 00:00:00.0000, -4.420287499707256E+08, 3.834472183730738E+06, -8.886057178724298E+06,
$$EOE